start=new Date('2022-10-12T00:00:00.000Z').valueOf();
sats=[{"GP_ID":"214823446","TLE_LINE1":"1 49731U 21115H   22284.59269648 -.00002991  00000-0 -16996-3 0  9998","DECAY_DATE":null,"TIME_SYSTEM":"UTC","MEAN_MOTION_DOT":"-0.00002991","MEAN_MOTION_DDOT":"0.0000000000000","MEAN_ELEMENT_THEORY":"SGP4","SEMIMAJOR_AXIS":"6917.939","FILE":"3604484","LAUNCH_DATE":"2021-12-02","PERIAPSIS":"538.539","APOAPSIS":"541.069","OBJECT_ID":"2021-115H","MEAN_MOTION":"15.08820848","REV_AT_EPOCH":"4742","SITE":"AFETR","ECCENTRICITY":"0.00018290","MEAN_ANOMALY":"323.6317","OBJECT_TYPE":"PAYLOAD","ARG_OF_PERICENTER":"36.4800","NORAD_CAT_ID":"49731","ELEMENT_SET_NO":"999","CLASSIFICATION_TYPE":"U","CENTER_NAME":"EARTH","REF_FRAME":"TEME","RA_OF_ASC_NODE":"348.5753","OBJECT_NAME":"STARLINK-3228","PERIOD":"95.439","BSTAR":"-0.00016996000000","COUNTRY_CODE":"US","INCLINATION":"53.2178","TLE_LINE2":"2 49731  53.2178 348.5753 0001829  36.4800 323.6317 15.08820848 47424","EPHEMERIS_TYPE":"0","EPOCH":"2022-10-11T14:13:28.975872","RCS_SIZE":"LARGE"},{"FILE":"3604484","LAUNCH_DATE":"2021-12-02","PERIAPSIS":"538.605","APOAPSIS":"540.979","OBJECT_ID":"2021-115J","REV_AT_EPOCH":"4742","MEAN_MOTION":"15.08824694","ECCENTRICITY":"0.00017160","SITE":"AFETR","MEAN_MOTION_DDOT":"0.0000000000000","MEAN_ELEMENT_THEORY":"SGP4","SEMIMAJOR_AXIS":"6917.927","TLE_LINE1":"1 49732U 21115J   22284.60741796 -.00006334  00000-0 -38034-3 0  9992","GP_ID":"214823698","DECAY_DATE":null,"TIME_SYSTEM":"UTC","MEAN_MOTION_DOT":"-0.00006334","EPOCH":"2022-10-11T14:34:40.911744","RCS_SIZE":"LARGE","OBJECT_NAME":"STARLINK-3246","RA_OF_ASC_NODE":"348.5110","BSTAR":"-0.00038034000000","PERIOD":"95.439","COUNTRY_CODE":"US","TLE_LINE2":"2 49732  53.2186 348.5110 0001716  37.1742 322.9369 15.08824694 47421","EPHEMERIS_TYPE":"0","INCLINATION":"53.2186","ARG_OF_PERICENTER":"37.1742","ELEMENT_SET_NO":"999","NORAD_CAT_ID":"49732","CENTER_NAME":"EARTH","REF_FRAME":"TEME","CLASSIFICATION_TYPE":"U","MEAN_ANOMALY":"322.9369","OBJECT_TYPE":"PAYLOAD"},{"REV_AT_EPOCH":"4743","OBJECT_ID":"2021-115K","MEAN_MOTION":"15.08818101","SITE":"AFETR","ECCENTRICITY":"0.00017970","FILE":"3604484","LAUNCH_DATE":"2021-12-02","PERIAPSIS":"538.569","APOAPSIS":"541.055","MEAN_ELEMENT_THEORY":"SGP4","SEMIMAJOR_AXIS":"6917.947","MEAN_MOTION_DDOT":"0.0000000000000","MEAN_MOTION_DOT":"-0.00002936","TIME_SYSTEM":"UTC","GP_ID":"214824448","TLE_LINE1":"1 49733U 21115K   22284.66629440 -.00002936  00000-0 -16652-3 0  9996","DECAY_DATE":null,"EPOCH":"2022-10-11T15:59:27.836160","RCS_SIZE":"LARGE","COUNTRY_CODE":"US","INCLINATION":"53.2184","EPHEMERIS_TYPE":"0","TLE_LINE2":"2 49733  53.2184 348.2454 0001797  40.7794 319.3333 15.08818101 47432","RA_OF_ASC_NODE":"348.2454","OBJECT_NAME":"STARLINK-3252","PERIOD":"95.439","BSTAR":"-0.00016652000000","CLASSIFICATION_TYPE":"U","CENTER_NAME":"EARTH","REF_FRAME":"TEME","ARG_OF_PERICENTER":"40.7794","NORAD_CAT_ID":"49733","ELEMENT_SET_NO":"999","OBJECT_TYPE":"PAYLOAD","MEAN_ANOMALY":"319.3333"},{"FILE":"3603543","APOAPSIS":"540.053","LAUNCH_DATE":"2021-12-02","PERIAPSIS":"536.951","OBJECT_ID":"2021-115L","MEAN_MOTION":"15.09246853","REV_AT_EPOCH":"4756","SITE":"AFETR","ECCENTRICITY":"0.00022430","GP_ID":"214783223","TLE_LINE1":"1 49734U 21115L   22284.55225147  .00027504  00000-0  17202-2 0  9998","DECAY_DATE":null,"TIME_SYSTEM":"UTC","MEAN_MOTION_DOT":"0.00027504","MEAN_MOTION_DDOT":"0.0000000000000","MEAN_ELEMENT_THEORY":"SGP4","SEMIMAJOR_AXIS":"6916.637","RA_OF_ASC_NODE":"338.7679","OBJECT_NAME":"STARLINK-3238","PERIOD":"95.412","BSTAR":"0.00172020000000","COUNTRY_CODE":"US","INCLINATION":"53.2155","TLE_LINE2":"2 49734  53.2155 338.7679 0002243  46.0627 314.0550 15.09246853 47562","EPHEMERIS_TYPE":"0","EPOCH":"2022-10-11T13:15:14.527008","RCS_SIZE":"LARGE","MEAN_ANOMALY":"314.0550","OBJECT_TYPE":"PAYLOAD","ARG_OF_PERICENTER":"46.0627","NORAD_CAT_ID":"49734","ELEMENT_SET_NO":"999","CLASSIFICATION_TYPE":"U","REF_FRAME":"TEME","CENTER_NAME":"EARTH"},{"MEAN_ELEMENT_THEORY":"SGP4","SEMIMAJOR_AXIS":"6917.954","MEAN_MOTION_DDOT":"0.0000000000000","TIME_SYSTEM":"UTC","MEAN_MOTION_DOT":"-0.00006044","TLE_LINE1":"1 49735U 21115M   22284.60373211 -.00006044  00000-0 -36218-3 0  9998","GP_ID":"214822947","DECAY_DATE":null,"REV_AT_EPOCH":"4742","MEAN_MOTION":"15.08815848","OBJECT_ID":"2021-115M","ECCENTRICITY":"0.00015780","SITE":"AFETR","FILE":"3604484","PERIAPSIS":"538.728","LAUNCH_DATE":"2021-12-02","APOAPSIS":"540.911","REF_FRAME":"TEME","CENTER_NAME":"EARTH","CLASSIFICATION_TYPE":"U","ARG_OF_PERICENTER":"50.5852","ELEMENT_SET_NO":"999","NORAD_CAT_ID":"49735","OBJECT_TYPE":"PAYLOAD","MEAN_ANOMALY":"309.5280","EPOCH":"2022-10-11T14:29:22.454304","RCS_SIZE":"LARGE","COUNTRY_CODE":"US","TLE_LINE2":"2 49735  53.2184 348.5258 0001578  50.5852 309.5280 15.08815848 47426","EPHEMERIS_TYPE":"0","INCLINATION":"53.2184","OBJECT_NAME":"STARLINK-3113","RA_OF_ASC_NODE":"348.5258","BSTAR":"-0.00036218000000","PERIOD":"95.439"},{"SEMIMAJOR_AXIS":"6917.934","MEAN_ELEMENT_THEORY":"SGP4","MEAN_MOTION_DDOT":"0.0000000000000","TIME_SYSTEM":"UTC","MEAN_MOTION_DOT":"-0.00004874","DECAY_DATE":null,"GP_ID":"214783726","TLE_LINE1":"1 49736U 21115N   22284.42800749 -.00004874  00000-0 -28844-3 0  9995","SITE":"AFETR","ECCENTRICITY":"0.00022460","MEAN_MOTION":"15.08822521","OBJECT_ID":"2021-115N","REV_AT_EPOCH":"4754","LAUNCH_DATE":"2021-12-02","PERIAPSIS":"538.245","APOAPSIS":"541.353","FILE":"3603543","CLASSIFICATION_TYPE":"U","REF_FRAME":"TEME","CENTER_NAME":"EARTH","NORAD_CAT_ID":"49736","ELEMENT_SET_NO":"999","ARG_OF_PERICENTER":"30.0450","OBJECT_TYPE":"PAYLOAD","MEAN_ANOMALY":"330.0670","RCS_SIZE":"LARGE","EPOCH":"2022-10-11T10:16:19.847136","INCLINATION":"53.2154","EPHEMERIS_TYPE":"0","TLE_LINE2":"2 49736  53.2154 339.3349 0002246  30.0450 330.0670 15.08822521 47544","COUNTRY_CODE":"US","PERIOD":"95.439","BSTAR":"-0.00028844000000","RA_OF_ASC_NODE":"339.3349","OBJECT_NAME":"STARLINK-3148"},{"MEAN_MOTION":"15.08837445","OBJECT_ID":"2021-115P","REV_AT_EPOCH":"4867","SITE":"AFETR","ECCENTRICITY":"0.00019550","FILE":"3604260","APOAPSIS":"541.106","LAUNCH_DATE":"2021-12-02","PERIAPSIS":"538.401","TIME_SYSTEM":"UTC","MEAN_MOTION_DOT":"0.00001680","TLE_LINE1":"1 49737U 21115P   22284.55681113  .00001680  00000-0  12364-3 0  9992","GP_ID":"214798339","DECAY_DATE":null,"MEAN_ELEMENT_THEORY":"SGP4","SEMIMAJOR_AXIS":"6917.888","MEAN_MOTION_DDOT":"0.0000000000000","COUNTRY_CODE":"US","INCLINATION":"53.2173","TLE_LINE2":"2 49737  53.2173 338.7465 0001955  39.9129 320.2007 15.08837445 48676","EPHEMERIS_TYPE":"0","RA_OF_ASC_NODE":"338.7465","OBJECT_NAME":"STARLINK-3225","PERIOD":"95.438","BSTAR":"0.00012364000000","EPOCH":"2022-10-11T13:21:48.481632","RCS_SIZE":"LARGE","OBJECT_TYPE":"PAYLOAD","MEAN_ANOMALY":"320.2007","CLASSIFICATION_TYPE":"U","CENTER_NAME":"EARTH","REF_FRAME":"TEME","ARG_OF_PERICENTER":"39.9129","NORAD_CAT_ID":"49737","ELEMENT_SET_NO":"999"},{"COUNTRY_CODE":"US","INCLINATION":"53.2160","EPHEMERIS_TYPE":"0","TLE_LINE2":"2 49738  53.2160 339.3064 0001895  45.8117 314.3030 15.08830267 47541","RA_OF_ASC_NODE":"339.3064","OBJECT_NAME":"STARLINK-3143","PERIOD":"95.438","BSTAR":"-0.00007901800000","EPOCH":"2022-10-11T10:21:38.009952","RCS_SIZE":"LARGE","OBJECT_TYPE":"PAYLOAD","MEAN_ANOMALY":"314.3030","CLASSIFICATION_TYPE":"U","REF_FRAME":"TEME","CENTER_NAME":"EARTH","ARG_OF_PERICENTER":"45.8117","NORAD_CAT_ID":"49738","ELEMENT_SET_NO":"999","OBJECT_ID":"2021-115Q","MEAN_MOTION":"15.08830267","REV_AT_EPOCH":"4754","SITE":"AFETR","ECCENTRICITY":"0.00018950","FILE":"3603543","LAUNCH_DATE":"2021-12-02","APOAPSIS":"541.086","PERIAPSIS":"538.464","MEAN_MOTION_DOT":"-0.00001545","TIME_SYSTEM":"UTC","TLE_LINE1":"1 49738U 21115Q   22284.43168993 -.00001545  00000-0 -79018-4 0  9998","GP_ID":"214782724","DECAY_DATE":null,"MEAN_ELEMENT_THEORY":"SGP4","SEMIMAJOR_AXIS":"6917.910","MEAN_MOTION_DDOT":"0.0000000000000"},{"RCS_SIZE":"LARGE","EPOCH":"2022-10-11T14:39:57.547008","BSTAR":"-0.00042643000000","PERIOD":"95.439","OBJECT_NAME":"STARLINK-3155","RA_OF_ASC_NODE":"348.4953","TLE_LINE2":"2 49739  53.2187 348.4953 0001885  37.6128 322.4996 15.08819052 47426","EPHEMERIS_TYPE":"0","INCLINATION":"53.2187","COUNTRY_CODE":"US","ELEMENT_SET_NO":"999","NORAD_CAT_ID":"49739","ARG_OF_PERICENTER":"37.6128","REF_FRAME":"TEME","CENTER_NAME":"EARTH","CLASSIFICATION_TYPE":"U","MEAN_ANOMALY":"322.4996","OBJECT_TYPE":"PAYLOAD","LAUNCH_DATE":"2021-12-02","PERIAPSIS":"538.505","APOAPSIS":"541.113","FILE":"3604484","ECCENTRICITY":"0.00018850","SITE":"AFETR","MEAN_MOTION":"15.08819052","OBJECT_ID":"2021-115R","REV_AT_EPOCH":"4742","MEAN_MOTION_DDOT":"0.0000000000000","SEMIMAJOR_AXIS":"6917.944","MEAN_ELEMENT_THEORY":"SGP4","DECAY_DATE":null,"GP_ID":"214823447","TLE_LINE1":"1 49739U 21115R   22284.61108272 -.00007065  00000-0 -42643-3 0  9999","MEAN_MOTION_DOT":"-0.00007065","TIME_SYSTEM":"UTC"},{"CLASSIFICATION_TYPE":"U","CENTER_NAME":"EARTH","REF_FRAME":"TEME","ARG_OF_PERICENTER":"39.0144","NORAD_CAT_ID":"49740","ELEMENT_SET_NO":"999","OBJECT_TYPE":"PAYLOAD","MEAN_ANOMALY":"321.0983","EPOCH":"2022-10-11T10:37:32.100096","RCS_SIZE":"LARGE","COUNTRY_CODE":"US","INCLINATION":"53.2166","TLE_LINE2":"2 49740  53.2166 339.2508 0001874  39.0144 321.0983 15.08826603 47545","EPHEMERIS_TYPE":"0","RA_OF_ASC_NODE":"339.2508","OBJECT_NAME":"STARLINK-3226","PERIOD":"95.438","BSTAR":"-0.00020435000000","MEAN_ELEMENT_THEORY":"SGP4","SEMIMAJOR_AXIS":"6917.921","MEAN_MOTION_DDOT":"0.0000000000000","TIME_SYSTEM":"UTC","MEAN_MOTION_DOT":"-0.00003538","TLE_LINE1":"1 49740U 21115S   22284.44273264 -.00003538  00000-0 -20435-3 0  9992","GP_ID":"214784226","DECAY_DATE":null,"OBJECT_ID":"2021-115S","REV_AT_EPOCH":"4754","MEAN_MOTION":"15.08826603","SITE":"AFETR","ECCENTRICITY":"0.00018740","FILE":"3603543","LAUNCH_DATE":"2021-12-02","PERIAPSIS":"538.490","APOAPSIS":"541.083"}];
